{"type": "FeatureCollection", "features": [ {"type": "Feature", "properties": {"norad_id": 37340, "name": "COSMOS 2251 DEB", "group": "cosmos-2251-debris", "lat": 7.287448947426112, "lon": -98.53847287650143, "alt_km": 757.8249600479949, "timestamp": "2025-12-22T09:53:37.797709+00:00", "meta": {"OBJECT_NAME": "COSMOS 2251 DEB", "OBJECT_ID": "1993-036BLG", "EPOCH": "2025-12-19T03:19:36.196032", "MEAN_MOTION": 14.36930541, "ECCENTRICITY": 0.00180628, "INCLINATION": 74.0254, "RA_OF_ASC_NODE": 265.3825, "ARG_OF_PERICENTER": 358.9051, "MEAN_ANOMALY": 1.206, "EPHEMERIS_TYPE": 0, "CLASSIFICATION_TYPE": "U", "NORAD_CAT_ID": 37340, "ELEMENT_SET_NO": 999, "REV_AT_EPOCH": 84159, "BSTAR": 0.00014760605, "MEAN_MOTION_DOT": 4.11e-06, "MEAN_MOTION_DDOT": 0}, "tle": {"line1": "1 37340U 93036BLG 25353.13861338  .00000411  00000+0  14761-3 0  9996", "line2": "2 37340  74.0254 265.3825 0018062 358.9051   1.2060 14.36930541841592"}}, "geometry": {"type": "Point", "coordinates": [-98.53847287650143, 7.287448947426112]}}, {"type": "Feature", "properties": {"norad_id": 37483, "name": "COSMOS 2251 DEB", "group": "cosmos-2251-debris", "lat": -8.203864791288623, "lon": 122.91506222374475, "alt_km": 688.4540086121206, "timestamp": "2025-12-22T09:53:37.797719+00:00", "meta": {"OBJECT_NAME": "COSMOS 2251 DEB", "OBJECT_ID": "1993-036BLL", "EPOCH": "2025-12-21T15:38:14.479872", "MEAN_MOTION": 14.4356851, "ECCENTRICITY": 0.0093538, "INCLINATION": 73.9739, "RA_OF_ASC_NODE": 126.7087, "ARG_OF_PERICENTER": 331.1922, "MEAN_ANOMALY": 28.4086, "EPHEMERIS_TYPE": 0, "CLASSIFICATION_TYPE": "U", "NORAD_CAT_ID": 37483, "ELEMENT_SET_NO": 999, "REV_AT_EPOCH": 65408, "BSTAR": 0.00016297, "MEAN_MOTION_DOT": 5.52e-06, "MEAN_MOTION_DDOT": 0}, "tle": {"line1": "1 37483U 93036BLL 25355.65155648  .00000552  00000+0  16297-3 0  9995", "line2": "2 37483  73.9739 126.7087 0093538 331.1922  28.4086 14.43568510654083"}}, "geometry": {"type": "Point", "coordinates": [122.91506222374475, -8.203864791288623]}}, {"type": "Feature", "properties": {"norad_id": 37484, "name": "COSMOS 2251 DEB", "group": "cosmos-2251-debris", "lat": 1.1300672030012062, "lon": 9.956719587898537, "alt_km": 734.9308839707182, "timestamp": "2025-12-22T09:53:37.797729+00:00", "meta": {"OBJECT_NAME": "COSMOS 2251 DEB", "OBJECT_ID": "1993-036BLM", "EPOCH": "2025-12-18T07:38:27.570624", "MEAN_MOTION": 14.41807924, "ECCENTRICITY": 0.00394245, "INCLINATION": 73.8227, "RA_OF_ASC_NODE": 197.9673, "ARG_OF_PERICENTER": 231.9462, "MEAN_ANOMALY": 306.1628, "EPHEMERIS_TYPE": 0, "CLASSIFICATION_TYPE": "U", "NORAD_CAT_ID": 37484, "ELEMENT_SET_NO": 999, "REV_AT_EPOCH": 65459, "BSTAR": 0.0005692289, "MEAN_MOTION_DOT": 1.85e-05, "MEAN_MOTION_DDOT": 0}, "tle": {"line1": "1 37484U 93036BLM 25352.31837466  .00001850  00000+0  56923-3 0  9993", "line2": "2 37484  73.8227 197.9673 0039424 231.9462 306.1628 14.41807924654593"}}, "geometry": {"type": "Point", "coordinates": [9.956719587898537, 1.1300672030012062]}}, {"type": "Feature", "properties": {"norad_id": 37486, "name": "COSMOS 2251 DEB", "group": "cosmos-2251-debris", "lat": 11.653008075630684, "lon": -86.35148223563509, "alt_km": 1000.2136675042029, "timestamp": "2025-12-22T09:53:37.797739+00:00", "meta": {"OBJECT_NAME": "COSMOS 2251 DEB", "OBJECT_ID": "1993-036BLP", "EPOCH": "2025-12-22T01:29:57.185952", "MEAN_MOTION": 14.13400204, "ECCENTRICITY": 0.0230768, "INCLINATION": 73.6926, "RA_OF_ASC_NODE": 97.742, "ARG_OF_PERICENTER": 324.2908, "MEAN_ANOMALY": 225.4892, "EPHEMERIS_TYPE": 0, "CLASSIFICATION_TYPE": "U", "NORAD_CAT_ID": 37486, "ELEMENT_SET_NO": 999, "REV_AT_EPOCH": 63501, "BSTAR": 0.001935, "MEAN_MOTION_DOT": 4.66e-05, "MEAN_MOTION_DDOT": 0}, "tle": {"line1": "1 37486U 93036BLP 25356.06246743  .00004660  00000+0  19350-2 0  9997", "line2": "2 37486  73.6926  97.7420 0230768 324.2908 225.4892 14.13400204635012"}}, "geometry": {"type": "Point", "coordinates": [-86.35148223563509, 11.653008075630684]}}, {"type": "Feature", "properties": {"norad_id": 37487, "name": "COSMOS 2251 DEB", "group": "cosmos-2251-debris", "lat": 67.13379857154966, "lon": -50.36807425443409, "alt_km": 619.5579175194835, "timestamp": "2025-12-22T09:53:37.797749+00:00", "meta": {"OBJECT_NAME": "COSMOS 2251 DEB", "OBJECT_ID": "1993-036BLQ", "EPOCH": "2025-12-12T06:17:24.389376", "MEAN_MOTION": 14.80982589, "ECCENTRICITY": 0.00255931, "INCLINATION": 73.9026, "RA_OF_ASC_NODE": 193.0379, "ARG_OF_PERICENTER": 31.2136, "MEAN_ANOMALY": 329.0553, "EPHEMERIS_TYPE": 0, "CLASSIFICATION_TYPE": "U", "NORAD_CAT_ID": 37487, "ELEMENT_SET_NO": 999, "REV_AT_EPOCH": 81238, "BSTAR": 0.0042593386, "MEAN_MOTION_DOT": 0.00033302, "MEAN_MOTION_DDOT": 0}, "tle": {"line1": "1 37487U 93036BLQ 25346.26208784  .00033302  00000+0  42593-2 0  9992", "line2": "2 37487  73.9026 193.0379 0025593  31.2136 329.0553 14.80982589812383"}}, "geometry": {"type": "Point", "coordinates": [-50.36807425443409, 67.13379857154966]}}, {"type": "Feature", "properties": {"norad_id": 37491, "name": "COSMOS 2251 DEB", "group": "cosmos-2251-debris", "lat": 43.74117869462142, "lon": 61.83902010172642, "alt_km": 1069.9193341194314, "timestamp": "2025-12-22T09:53:37.797759+00:00", "meta": {"OBJECT_NAME": "COSMOS 2251 DEB", "OBJECT_ID": "1993-036BLU", "EPOCH": "2025-12-18T10:56:34.756512", "MEAN_MOTION": 13.75306466, "ECCENTRICITY": 0.03168182, "INCLINATION": 73.9061, "RA_OF_ASC_NODE": 264.5073, "ARG_OF_PERICENTER": 256.5569, "MEAN_ANOMALY": 100.0063, "EPHEMERIS_TYPE": 0, "CLASSIFICATION_TYPE": "U", "NORAD_CAT_ID": 37491, "ELEMENT_SET_NO": 999, "REV_AT_EPOCH": 55825, "BSTAR": 0.00075469167, "MEAN_MOTION_DOT": 1.019e-05, "MEAN_MOTION_DDOT": 0}, "tle": {"line1": "1 37491U 93036BLU 25352.45595783  .00001019  00000+0  75469-3 0  9992", "line2": "2 37491  73.9061 264.5073 0316818 256.5569 100.0063 13.75306466558250"}}, "geometry": {"type": "Point", "coordinates": [61.83902010172642, 43.74117869462142]}}, {"type": "Feature", "properties": {"norad_id": 37498, "name": "COSMOS 2251 DEB", "group": "cosmos-2251-debris", "lat": 64.30855569938387, "lon": -157.8996817238206, "alt_km": 711.3087783781275, "timestamp": "2025-12-22T09:53:37.797769+00:00", "meta": {"OBJECT_NAME": "COSMOS 2251 DEB", "OBJECT_ID": "1993-036BMB", "EPOCH": "2025-12-17T05:47:45.632832", "MEAN_MOTION": 14.54797097, "ECCENTRICITY": 0.00121661, "INCLINATION": 74.035, "RA_OF_ASC_NODE": 175.365, "ARG_OF_PERICENTER": 238.5243, "MEAN_ANOMALY": 121.4732, "EPHEMERIS_TYPE": 0, "CLASSIFICATION_TYPE": "U", "NORAD_CAT_ID": 37498, "ELEMENT_SET_NO": 999, "REV_AT_EPOCH": 65420, "BSTAR": 0.00050498457, "MEAN_MOTION_DOT": 2.139e-05, "MEAN_MOTION_DDOT": 0}, "tle": {"line1": "1 37498U 93036BMB 25351.24150038  .00002139  00000+0  50498-3 0  9994", "line2": "2 37498  74.0350 175.3650 0012166 238.5243 121.4732 14.54797097654202"}}, "geometry": {"type": "Point", "coordinates": [-157.8996817238206, 64.30855569938387]}}, {"type": "Feature", "properties": {"norad_id": 37499, "name": "COSMOS 2251 DEB", "group": "cosmos-2251-debris", "lat": -64.3889390071449, "lon": -92.17814601392251, "alt_km": 783.1357502575729, "timestamp": "2025-12-22T09:53:37.797778+00:00", "meta": {"OBJECT_NAME": "COSMOS 2251 DEB", "OBJECT_ID": "1993-036BMC", "EPOCH": "2025-12-21T14:07:49.772928", "MEAN_MOTION": 14.34350352, "ECCENTRICITY": 0.0027281, "INCLINATION": 74.0381, "RA_OF_ASC_NODE": 305.9892, "ARG_OF_PERICENTER": 19.4134, "MEAN_ANOMALY": 340.805, "EPHEMERIS_TYPE": 0, "CLASSIFICATION_TYPE": "U", "NORAD_CAT_ID": 37499, "ELEMENT_SET_NO": 999, "REV_AT_EPOCH": 85276, "BSTAR": 0.000141, "MEAN_MOTION_DOT": 3.72e-06, "MEAN_MOTION_DDOT": 0}, "tle": {"line1": "1 37499U 93036BMC 25355.58877052  .00000372  00000+0  14100-3 0  9995", "line2": "2 37499  74.0381 305.9892 0027281  19.4134 340.8050 14.34350352852763"}}, "geometry": {"type": "Point", "coordinates": [-92.17814601392251, -64.3889390071449]}}, {"type": "Feature", "properties": {"norad_id": 37528, "name": "COSMOS 2251 DEB", "group": "cosmos-2251-debris", "lat": -64.92014628538185, "lon": 66.25666022414934, "alt_km": 718.9301044753875, "timestamp": "2025-12-22T09:53:37.797788+00:00", "meta": {"OBJECT_NAME": "COSMOS 2251 DEB", "OBJECT_ID": "1993-036BNH", "EPOCH": "2025-12-22T00:17:10.364928", "MEAN_MOTION": 14.50551817, "ECCENTRICITY": 0.0021166, "INCLINATION": 74.0378, "RA_OF_ASC_NODE": 104.7119, "ARG_OF_PERICENTER": 251.9967, "MEAN_ANOMALY": 107.8887, "EPHEMERIS_TYPE": 0, "CLASSIFICATION_TYPE": "U", "NORAD_CAT_ID": 37528, "ELEMENT_SET_NO": 999, "REV_AT_EPOCH": 86065, "BSTAR": 0.00046777, "MEAN_MOTION_DOT": 1.81e-05, "MEAN_MOTION_DDOT": 0}, "tle": {"line1": "1 37528U 93036BNH 25356.01192552  .00001810  00000+0  46777-3 0  9995", "line2": "2 37528  74.0378 104.7119 0021166 251.9967 107.8887 14.50551817860655"}}, "geometry": {"type": "Point", "coordinates": [66.25666022414934, -64.92014628538185]}}, {"type": "Feature", "properties": {"norad_id": 37530, "name": "COSMOS 2251 DEB", "group": "cosmos-2251-debris", "lat": 0.5552949890555366, "lon": -43.911587882060985, "alt_km": 761.0756325742777, "timestamp": "2025-12-22T09:53:37.797798+00:00", "meta": {"OBJECT_NAME": "COSMOS 2251 DEB", "OBJECT_ID": "1993-036BNK", "EPOCH": "2025-12-20T04:25:20.724960", "MEAN_MOTION": 14.34512323, "ECCENTRICITY": 0.0026208, "INCLINATION": 74.0363, "RA_OF_ASC_NODE": 320.008, "ARG_OF_PERICENTER": 20.0363, "MEAN_ANOMALY": 359.5359, "EPHEMERIS_TYPE": 0, "CLASSIFICATION_TYPE": "U", "NORAD_CAT_ID": 37530, "ELEMENT_SET_NO": 999, "REV_AT_EPOCH": 85339, "BSTAR": 0.00016497605, "MEAN_MOTION_DOT": 4.41e-06, "MEAN_MOTION_DDOT": 0}, "tle": {"line1": "1 37530U 93036BNK 25354.18426765  .00000441  00000+0  16498-3 0  9996", "line2": "2 37530  74.0363 320.0080 0026208  20.0363 359.5359 14.34512323853393"}}, "geometry": {"type": "Point", "coordinates": [-43.911587882060985, 0.5552949890555366]}}]}